{
    "links": {
        "self": "http://www.neowsapp.com/rest/v1/neo/3795108?api_key=iIulBulltgU6a56xZRHN4H3l9WmuAYTsLGpBGhQ2"
    },
    "id": "3795108",
    "neo_reference_id": "3795108",
    "name": "(2017 YP6)",
    "designation": "2017 YP6",
    "nasa_jpl_url": "http://ssd.jpl.nasa.gov/sbdb.cgi?sstr=3795108",
    "absolute_magnitude_h": 25.1,
    "estimated_diameter": {
        "kilometers": {
            "estimated_diameter_min": 0.0253837029,
            "estimated_diameter_max": 0.0567596853
        },
        "meters": {
            "estimated_diameter_min": 25.3837029364,
            "estimated_diameter_max": 56.7596852866
        },
        "miles": {
            "estimated_diameter_min": 0.0157726969,
            "estimated_diameter_max": 0.0352688224
        },
        "feet": {
            "estimated_diameter_min": 83.279867942,
            "estimated_diameter_max": 186.2194458756
        }
    },
    "is_potentially_hazardous_asteroid": false,
    "close_approach_data": [
        {
            "close_approach_date": "2017-12-29",
            "close_approach_date_full": "2017-Dec-29 02:07",
            "epoch_date_close_approach": 1514513220000,
            "relative_velocity": {
                "kilometers_per_second": "16.0028477438",
                "kilometers_per_hour": "57610.2518775295",
                "miles_per_hour": "35796.7701180127"
            },
            "miss_distance": {
                "astronomical": "0.0364566789",
                "lunar": "14.1816480921",
                "kilometers": "5453841.510713943",
                "miles": "3388859.9712326934"
            },
            "orbiting_body": "Earth"
        }
    ],
    "orbital_data": {
        "orbit_id": "1",
        "orbit_determination_date": "2017-12-29 14:12:05",
        "first_observation_date": "2017-12-28",
        "last_observation_date": "2017-12-29",
        "data_arc_in_days": 1,
        "observations_used": 28,
        "orbit_uncertainty": "8",
        "minimum_orbit_intersection": ".0364278",
        "jupiter_tisserand_invariant": "4.322",
        "epoch_osculation": "2458116.5",
        "eccentricity": ".3528387830669935",
        "semi_major_axis": "1.520825265305562",
        "inclination": "27.1448531695614",
        "ascending_node_longitude": "96.09547596698015",
        "orbital_period": "685.042325136223",
        "perihelion_distance": ".9842191294376101",
        "perihelion_argument": "30.64033841544379",
        "aphelion_distance": "2.057431401173514",
        "perihelion_time": "2458142.192494116755",
        "mean_anomaly": "346.4982096103441",
        "mean_motion": ".5255149744629469",
        "equinox": "J2000",
        "orbit_class": {
            "orbit_class_type": "APO",
            "orbit_class_description": "Near-Earth asteroid orbits which cross the Earth’s orbit similar to that of 1862 Apollo",
            "orbit_class_range": "a (semi-major axis) > 1.0 AU; q (perihelion) < 1.017 AU"
        }
    },
    "is_sentry_object": false
}